2008 TZ3,e,8.8122,44.2917,219.0951,1.594205,0.4896521,0.39191698,225.0889,08/27.0/2011,2000,H20.3,0.15
2008 TA4,e,15.4867,16.5902,61.7723,1.087595,0.8689675,0.12292371,143.1404,08/27.0/2011,2000,H25.1,0.15
2008 TB4,e,41.5591,194.4387,137.9512,1.785838,0.4129915,0.43635998,88.7399,08/27.0/2011,2000,H21.0,0.15
2008 TC4,e,10.6433,212.6687,324.2197,0.780445,1.4295209,0.55441464,298.5299,08/27.0/2011,2000,H21.5,0.15
2008 TD4,e,14.4749,222.0483,54.7292,1.821817,0.4008176,0.61737089,89.8584,08/27.0/2011,2000,H19.8,0.15
2008 TE4,e,6.3307,355.6724,325.0630,1.467399,0.5544745,0.36824385,248.8055,08/27.0/2011,2000,H24.1,0.15
2008 TF4,e,24.0583,213.4713,113.1682,1.894121,0.3780876,0.31974970,64.5661,08/27.0/2011,2000,H19.3,0.15
2008 TF9,e,41.0134,6.0212,324.4442,2.556982,0.2410531,0.53582841,263.9040,08/27.0/2011,2000,H20.8,0.15
2008 TN9,e,1.6195,7.4635,290.2165,1.198393,0.7512855,0.30237118,116.6653,08/27.0/2011,2000,H27.8,0.15
2008 TX9,e,7.6602,199.9007,223.4046,1.913244,0.3724333,0.51109492,17.7769,08/27.0/2011,2000,H26.2,0.15
2008 TY9,e,8.2943,205.1994,158.6149,1.433100,0.5744993,0.27960274,250.9193,08/27.0/2011,2000,H24.9,0.15
2008 TM10,e,22.3325,203.0451,229.0726,2.266302,0.2888867,0.65005414,292.7130,08/27.0/2011,2000,H19.3,0.15
2008 TO10,e,13.3579,354.6954,67.1299,3.028077,0.1870483,0.56046278,188.5321,08/27.0/2011,2000,H19.0,0.15
2008 TP10,e,3.7039,229.7950,60.0282,2.179009,0.3064189,0.60895840,347.8669,08/27.0/2011,2000,H22.5,0.15
2008 TQ10,e,24.7075,10.1020,296.8657,2.223501,0.2972680,0.46151790,341.2549,08/27.0/2011,2000,H20.5,0.15
2008 TR10,e,5.3902,256.5063,35.6575,2.120186,0.3192590,0.46665349,12.5533,08/27.0/2011,2000,H20.5,0.15
2008 TS10,e,1.4594,5.5002,345.7040,1.257489,0.6989528,0.20168452,31.7093,08/27.0/2011,2000,H29.0,0.15
2008 TV25,e,9.0421,164.0694,296.9458,1.885276,0.3807514,0.51260586,14.5120,08/27.0/2011,2000,H20.0,0.15
2008 TL26,e,17.8625,198.4834,171.6277,2.630582,0.2310076,0.57528810,243.9485,08/27.0/2011,2000,H24.7,0.15
2008 TM26,e,3.6865,336.6768,343.4815,1.673204,0.4553869,0.45125316,140.1944,08/27.0/2011,2000,H23.3,0.15
2008 TN26,e,9.4232,253.6852,22.2885,1.824266,0.4000108,0.63328702,92.3135,08/27.0/2011,2000,H20.2,0.15
2008 TO26,e,19.8476,38.0112,330.0468,1.483644,0.5453930,0.08494564,222.7630,08/27.0/2011,2000,H19.7,0.15
2008 TP26,e,13.3158,12.3791,241.6232,1.094430,0.8608397,0.28735882,280.1748,08/27.0/2011,2000,H23.8,0.15
2008 TQ26,e,4.1645,238.6076,61.0425,1.790886,0.4112466,0.49219084,101.7413,08/27.0/2011,2000,H23.4,0.15
2008 TS26,e,6.1308,16.1174,284.9416,1.396912,0.5969672,0.44912695,298.7031,08/27.0/2011,2000,H33.2,0.15
2008 TT26,e,8.4757,210.5527,190.0333,1.345285,0.6316589,0.25729965,289.6328,08/27.0/2011,2000,H23.6,0.15
2008 TB27,e,38.0104,265.0474,169.3129,1.770780,0.4182704,0.36008670,78.6510,08/27.0/2011,2000,H18.2,0.15
2008 TC27,e,41.5365,311.5425,214.9821,2.239545,0.2940793,0.38700214,288.0963,08/27.0/2011,2000,H16.6,0.15
2008 TD27,e,10.9408,286.6683,198.8265,2.203210,0.3013841,0.64021690,285.0748,08/27.0/2011,2000,H20.0,0.15
2008 TE157,e,1.9764,26.2091,77.3937,2.736119,0.2177718,0.62465903,207.9923,08/27.0/2011,2000,H20.8,0.15
2008 TJ157,e,12.2277,203.6366,133.7503,2.763050,0.2145957,0.54763903,236.3488,08/27.0/2011,2000,H21.0,0.15
2008 TK157,e,4.5442,220.3655,217.5867,2.391396,0.2665182,0.51568454,261.7227,08/27.0/2011,2000,H20.6,0.15
2008 UB,e,35.8761,26.1239,342.4298,1.498877,0.5370998,0.15821557,212.5627,08/27.0/2011,2000,H22.2,0.15
2008 UC,e,10.2511,99.2506,337.9560,1.976294,0.3547534,0.45290168,346.2445,08/27.0/2011,2000,H18.9,0.15
2008 UD,e,13.0325,205.6596,53.9625,1.020399,0.9562011,0.35037367,3.9541,08/27.0/2011,2000,H24.9,0.15
2008 UF,e,9.1353,206.6456,175.4511,1.649759,0.4651288,0.37165750,126.2627,08/27.0/2011,2000,H26.2,0.15
2008 UQ,e,10.2014,33.5147,172.4423,1.076101,0.8829266,0.33385913,182.8024,10/21.0/2008,2000,H21.7,0.15
2008 UR,e,4.8719,206.3508,229.2293,1.313076,0.6550422,0.27007920,293.5722,08/27.0/2011,2000,H26.9,0.15
2008 US,e,5.6526,207.8924,90.4001,1.422170,0.5811348,0.54457626,274.9478,08/27.0/2011,2000,H31.6,0.15
2008 UU,e,12.7212,31.4100,25.2122,2.780495,0.2125793,0.61593605,215.2737,08/27.0/2011,2000,H24.7,0.15
2008 UV,e,13.0141,205.5991,185.3727,1.630151,0.4735461,0.33908628,131.1544,08/27.0/2011,2000,H24.8,0.15
2008 UX,e,21.7446,37.5765,158.1008,0.817522,1.3333839,0.68138519,171.9068,08/27.0/2011,2000,H20.7,0.15
2008 UD1,e,6.4780,154.3036,6.5944,1.716281,0.4383504,0.46386858,3.8244,08/27.0/2011,2000,H19.3,0.15
2008 UE1,e,8.4088,197.8988,156.3262,2.232313,0.2955095,0.48867428,317.5211,08/27.0/2011,2000,H24.2,0.15
2008 UF1,e,4.9976,32.6805,274.5131,1.862082,0.3878875,0.63314007,61.9453,08/27.0/2011,2000,H26.0,0.15
2008 UM1,e,4.4304,208.9045,115.0042,1.844133,0.3935642,0.57415519,65.7450,08/27.0/2011,2000,H32.1,0.15
2008 UT1,e,43.0566,34.5536,292.4671,1.609599,0.4826445,0.45654443,165.5950,08/27.0/2011,2000,H22.3,0.15
2008 UU1,e,12.0573,157.4918,118.6318,1.607555,0.4835656,0.75058284,166.7986,08/27.0/2011,2000,H19.9,0.15
2008 UQ2,e,53.0274,191.1334,176.7788,2.598605,0.2352846,0.44498655,244.7704,08/27.0/2011,2000,H19.0,0.15
2008 UR2,e,2.3625,210.8234,124.0108,1.419988,0.5824744,0.36870026,270.4040,08/27.0/2011,2000,H27.0,0.15
2008 US2,e,4.4086,35.4640,14.6294,1.527753,0.5219443,0.27869779,172.5179,08/27.0/2011,2000,H23.8,0.15
2008 UT2,e,7.5751,208.5527,130.8970,1.803572,0.4069150,0.48314338,79.0174,08/27.0/2011,2000,H25.1,0.15
2008 UL3,e,6.5490,205.6146,240.8904,1.293611,0.6698820,0.22347140,297.4283,08/27.0/2011,2000,H25.4,0.15
2008 UM3,e,10.6806,213.7033,211.8163,1.458305,0.5596694,0.25052162,200.2952,08/27.0/2011,2000,H24.9,0.15
2008 UN3,e,24.8395,41.6319,130.3279,1.052750,0.9124655,0.23363246,115.2748,08/27.0/2011,2000,H22.0,0.15
2008 US4,e,13.1981,31.4649,72.5589,2.332743,0.2766328,0.63426560,270.9914,08/27.0/2011,2000,H20.9,0.15
2008 US5,e,29.7448,24.9787,59.7120,1.807191,0.4056935,0.32919055,28.4171,08/27.0/2011,2000,H21.3,0.15
2008 UT5,e,1.6136,37.6766,32.5826,2.279699,0.2863438,0.55496699,286.4684,08/27.0/2011,2000,H24.5,0.15
2008 UU5,e,15.5855,209.3124,170.6440,2.483335,0.2518553,0.50836873,264.5464,08/27.0/2011,2000,H23.3,0.15
2008 UV5,e,3.4856,40.4940,325.4203,2.539595,0.2435328,0.59564789,257.6756,08/27.0/2011,2000,H26.1,0.15
2008 UW5,e,9.4179,297.9575,204.3578,1.832136,0.3974363,0.38866359,339.2452,08/27.0/2011,2000,H18.1,0.15
2008 UA7,e,10.0511,213.7649,148.6326,1.612024,0.4815562,0.35904760,152.2477,08/27.0/2011,2000,H24.9,0.15
2008 UB7,e,2.0184,219.5746,287.6743,1.235044,0.7180926,0.59305050,339.0483,08/27.0/2011,2000,H23.9,0.15
2008 UC7,e,1.0579,79.3340,42.2649,1.318965,0.6506600,0.44312341,273.5182,08/27.0/2011,2000,H27.0,0.15
2008 UE7,e,3.9514,81.2134,48.6766,1.648561,0.4656360,0.44785220,82.6494,08/27.0/2011,2000,H20.4,0.15
2008 UF7,e,19.8928,55.0155,212.7579,1.649348,0.4653028,0.60567494,178.8663,08/27.0/2011,2000,H19.1,0.15
2008 UG7,e,40.7259,208.3737,119.9658,1.225218,0.7267487,0.09369040,84.4803,08/27.0/2011,2000,H21.1,0.15
2008 UX64,e,8.7062,239.9602,180.5230,3.380491,0.1585749,0.47569458,158.7188,08/27.0/2011,2000,H16.3,0.15
2008 UK90,e,34.6546,48.8583,91.3454,2.004289,0.3473471,0.37090046,300.7222,08/27.0/2011,2000,H18.7,0.15
2008 UL90,e,24.3077,81.1764,183.5797,0.694884,1.7015156,0.38012306,116.4514,08/27.0/2011,2000,H18.5,0.15
2008 UM90,e,5.9737,179.9264,121.3055,1.855089,0.3900831,0.45114787,72.6701,08/27.0/2011,2000,H20.9,0.15
2008 UN90,e,17.5454,33.5592,312.9931,1.404484,0.5921464,0.12563258,282.1590,08/27.0/2011,2000,H20.0,0.15
2008 UO90,e,5.7414,221.0518,100.7954,2.196025,0.3028644,0.43205995,346.2940,08/27.0/2011,2000,H20.5,0.15
2008 UV91,e,19.5149,15.9173,78.0362,2.208005,0.3004028,0.61671830,288.0780,08/27.0/2011,2000,H20.0,0.15
2008 UW91,e,7.3176,248.1231,282.7315,1.146412,0.8029581,0.57160995,31.3304,08/27.0/2011,2000,H21.7,0.15
2008 UX91,e,26.7443,32.8582,329.8340,1.428231,0.5774394,0.20605710,256.6168,08/27.0/2011,2000,H24.0,0.15
2008 UY91,e,32.9329,213.8031,266.3668,2.285221,0.2853066,0.67405011,340.0794,10/21.0/2008,2000,H24.1,0.15
2008 UZ91,e,17.6498,215.7719,134.2546,1.550673,0.5104152,0.26507899,194.1702,08/27.0/2011,2000,H22.4,0.15
2008 UA92,e,3.0109,39.5092,351.6791,2.526239,0.2454666,0.59428744,254.1595,08/27.0/2011,2000,H27.4,0.15
2008 UB92,e,7.2494,30.9219,317.2717,1.535078,0.5182133,0.34333527,197.3658,08/27.0/2011,2000,H24.7,0.15
2008 UZ94,e,30.2269,248.3156,159.6299,2.189844,0.3041476,0.57220812,303.5066,08/27.0/2011,2000,H17.5,0.15
2008 UB95,e,3.2388,22.0627,253.4399,0.989681,1.0010632,0.26858223,41.5156,08/27.0/2011,2000,H24.7,0.15
2008 UC95,e,8.4234,83.3381,340.9888,2.208509,0.3003001,0.48683014,307.5625,08/27.0/2011,2000,H18.6,0.15
2008 UD95,e,4.3617,223.2683,107.7409,1.143125,0.8064245,0.13588591,163.1664,08/27.0/2011,2000,H25.6,0.15
2008 UT95,e,3.8143,220.0574,247.3930,1.816612,0.4025417,0.57466848,36.1563,08/27.0/2011,2000,H27.4,0.15
2008 UU95,e,1.1694,297.7466,24.0713,2.519160,0.2465021,0.67650613,267.8300,08/27.0/2011,2000,H23.4,0.15
2008 UT99,e,1.5899,261.5501,116.4529,1.539451,0.5160068,0.30894283,182.8049,08/27.0/2011,2000,H24.4,0.15
2008 UU99,e,4.2796,44.0209,349.9126,2.337488,0.2757909,0.53818837,284.8950,08/27.0/2011,2000,H25.1,0.15
2008 UV99,e,30.3355,10.8653,249.4259,1.166586,0.7822201,0.23573925,104.7413,10/21.0/2008,2000,H19.6,0.15
2008 UW99,e,1.4769,21.3298,345.4727,2.463814,0.2548544,0.61759405,268.5000,08/27.0/2011,2000,H24.7,0.15
2008 UP100,e,5.8447,232.0443,109.3917,1.549338,0.5110750,0.41452565,188.7575,08/27.0/2011,2000,H23.9,0.15
2008 UK199,e,58.6761,224.2555,226.7619,1.751528,0.4251855,0.24537609,324.6817,10/21.0/2008,2000,H19.5,0.15
2008 UZ201,e,2.9859,81.0398,282.9763,2.327297,0.2776044,0.50030377,296.9752,08/27.0/2011,2000,H21.8,0.15
2008 UA202,e,0.2636,21.0559,300.9756,1.033228,0.9384471,0.06835153,314.8480,08/27.0/2011,2000,H29.4,0.15
2008 UB202,e,6.5523,223.6951,160.8274,2.492442,0.2504763,0.48631529,261.0122,08/27.0/2011,2000,H23.2,0.15
2008 UC202,e,7.4791,37.6474,88.7389,1.005040,0.9782034,0.06831938,202.6653,08/27.0/2011,2000,H28.3,0.15
